41180,ORBCOMM FM119,2015,98.75,-1.0,-,47.0,Inactive,0,LEO,USA,ORBCOMM,Unknown,Unknown,Unknown,1 41180U 15081B   25190.12217767  .00000355  00000+0  11286-3 0  9992,2 41180  47.0006  92.5643 0000738 180.3649 179.7236 14.58169199508923,14.58169199,7.38e-05,LEO
41181,ORBCOMM FM105,2015,99.64,-1.0,-,47.0,Inactive,0,LEO,USA,ORBCOMM,Unknown,Unknown,Unknown,1 41181U 15081C   25190.48274701  .00000080  00000+0  67169-4 0  9990,2 41181  47.0015  97.9746 0001426  38.0950 322.0031 14.45233579503972,14.45233579,0.0001426,LEO
40091,ORBCOMM FM103,2014,98.75,172.0,-,47.01,Inactive,1,LEO,USA,ORBCOMM,Commercial,Communications,Falcon,1 40091U 14040F   25190.52330787  .00000212  00000+0  82113-4 0  9998,2 40091  47.0054 272.3187 0001418 347.4703  12.6148 14.58193610567365,14.5819361,0.0001418,LEO
41179,ORBCOMM FM114,2015,98.75,172.0,+,47.0,Active,1,LEO,USA,ORBCOMM,Commercial,Communications,Falcon,1 41179U 15081A   25190.40723210  .00000217  00000+0  83009-4 0  9996,2 41179  47.0024 181.9004 0001025  76.4748 283.6252 14.58238622507717,14.58238622,0.0001025,LEO
41182,ORBCOMM FM110,2015,98.77,172.0,+,47.0,Active,1,LEO,USA,ORBCOMM,Commercial,Communications,Falcon,1 41182U 15081D   25190.46370646  .00000520  00000+0  14879-3 0  9992,2 41182  47.0003 181.1296 0002379 286.4851  73.5773 14.57967375507597,14.57967375,0.0002379,LEO
41183,ORBCOMM FM118,2015,98.75,172.0,+,47.0,Active,1,LEO,USA,ORBCOMM,Commercial,Communications,Falcon,1 41183U 15081E   25190.36255137  .00000243  00000+0  88776-4 0  9999,2 41183  47.0027 181.8900 0003878 263.5579  96.4865 14.58215363507681,14.58215363,0.0003878,LEO
41184,ORBCOMM FM112,2015,98.75,172.0,+,47.0,Active,1,LEO,USA,ORBCOMM,Commercial,Communications,Falcon,1 41184U 15081F   25190.43986047  .00000457  00000+0  13455-3 0  9997,2 41184  46.9990  90.1986 0000870  70.1159 289.9820 14.58250074508915,14.58250074,8.7e-05,LEO
41185,ORBCOMM FM113,2015,98.75,172.0,+,47.0,Active,1,LEO,USA,ORBCOMM,Commercial,Communications,Falcon,1 41185U 15081G   25190.00528497  .00000432  00000+0  12904-3 0  9993,2 41185  47.0009  92.5758 0000603  92.1660 267.9294 14.58253539508838,14.58253539,6.03e-05,LEO
